{"type": "FeatureCollection", "features": [ {"type": "Feature", "properties": {"norad_id": 30728, "name": "FENGYUN 1C DEB", "group": "fengyun-1c-debris", "lat": 7.7787265735365905, "lon": 6.422936934188525, "alt_km": 754.6729897997056, "timestamp": "2025-12-27T08:36:18.660770+00:00", "meta": {"OBJECT_NAME": "FENGYUN 1C DEB", "OBJECT_ID": "1999-025ASN", "EPOCH": "2025-12-27T00:08:02.965632", "MEAN_MOTION": 14.23479701, "ECCENTRICITY": 0.0099151, "INCLINATION": 98.5293, "RA_OF_ASC_NODE": 7.2554, "ARG_OF_PERICENTER": 40.838, "MEAN_ANOMALY": 320.0174, "EPHEMERIS_TYPE": 0, "CLASSIFICATION_TYPE": "U", "NORAD_CAT_ID": 30728, "ELEMENT_SET_NO": 999, "REV_AT_EPOCH": 97892, "BSTAR": 9.206e-05, "MEAN_MOTION_DOT": 1.78e-06, "MEAN_MOTION_DDOT": 0}, "tle": {"line1": "1 30728U 99025ASN 25361.00558988  .00000178  00000+0  92060-4 0  9991", "line2": "2 30728  98.5293   7.2554 0099151  40.8380 320.0174 14.23479701978929"}}, "geometry": {"type": "Point", "coordinates": [6.422936934188525, 7.7787265735365905]}}, {"type": "Feature", "properties": {"norad_id": 30730, "name": "FENGYUN 1C DEB", "group": "fengyun-1c-debris", "lat": 53.4042566254233, "lon": 28.444812357918728, "alt_km": 763.8582789721959, "timestamp": "2025-12-27T08:36:18.660780+00:00", "meta": {"OBJECT_NAME": "FENGYUN 1C DEB", "OBJECT_ID": "1999-025ASQ", "EPOCH": "2025-12-27T01:45:00.420192", "MEAN_MOTION": 14.25540926, "ECCENTRICITY": 0.007764, "INCLINATION": 98.6175, "RA_OF_ASC_NODE": 39.9481, "ARG_OF_PERICENTER": 7.4525, "MEAN_ANOMALY": 21.2559, "EPHEMERIS_TYPE": 0, "CLASSIFICATION_TYPE": "U", "NORAD_CAT_ID": 30730, "ELEMENT_SET_NO": 999, "REV_AT_EPOCH": 97210, "BSTAR": 0.001092, "MEAN_MOTION_DOT": 2.623e-05, "MEAN_MOTION_DDOT": 0}, "tle": {"line1": "1 30730U 99025ASQ 25361.07292153  .00002623  00000+0  10920-2 0  9990", "line2": "2 30730  98.6175  39.9481 0077640   7.4525  21.2559 14.25540926972103"}}, "geometry": {"type": "Point", "coordinates": [28.444812357918728, 53.4042566254233]}}, {"type": "Feature", "properties": {"norad_id": 30731, "name": "FENGYUN 1C DEB", "group": "fengyun-1c-debris", "lat": 1.2921849981024471, "lon": 81.11170155450078, "alt_km": 765.0914152434389, "timestamp": "2025-12-27T08:36:18.660790+00:00", "meta": {"OBJECT_NAME": "FENGYUN 1C DEB", "OBJECT_ID": "1999-025ASR", "EPOCH": "2025-12-27T03:53:16.761120", "MEAN_MOTION": 14.41967349, "ECCENTRICITY": 0.0015911, "INCLINATION": 98.8576, "RA_OF_ASC_NODE": 81.1094, "ARG_OF_PERICENTER": 206.4355, "MEAN_ANOMALY": 215.1922, "EPHEMERIS_TYPE": 0, "CLASSIFICATION_TYPE": "U", "NORAD_CAT_ID": 30731, "ELEMENT_SET_NO": 999, "REV_AT_EPOCH": 97564, "BSTAR": 0.0026649, "MEAN_MOTION_DOT": 8.713e-05, "MEAN_MOTION_DDOT": 0}, "tle": {"line1": "1 30731U 99025ASR 25361.16199955  .00008713  00000+0  26649-2 0  9998", "line2": "2 30731  98.8576  81.1094 0015911 206.4355 215.1922 14.41967349975645"}}, "geometry": {"type": "Point", "coordinates": [81.11170155450078, 1.2921849981024471]}}, {"type": "Feature", "properties": {"norad_id": 30732, "name": "FENGYUN 1C DEB", "group": "fengyun-1c-debris", "lat": -78.96660161059604, "lon": 73.64290989634198, "alt_km": 915.4241756000756, "timestamp": "2025-12-27T08:36:18.660800+00:00", "meta": {"OBJECT_NAME": "FENGYUN 1C DEB", "OBJECT_ID": "1999-025ASS", "EPOCH": "2025-12-26T13:12:15.534720", "MEAN_MOTION": 14.03913572, "ECCENTRICITY": 0.0124293, "INCLINATION": 98.8027, "RA_OF_ASC_NODE": 20.2335, "ARG_OF_PERICENTER": 170.3045, "MEAN_ANOMALY": 341.7178, "EPHEMERIS_TYPE": 0, "CLASSIFICATION_TYPE": "U", "NORAD_CAT_ID": 30732, "ELEMENT_SET_NO": 999, "REV_AT_EPOCH": 96385, "BSTAR": 0.00013304, "MEAN_MOTION_DOT": 1.83e-06, "MEAN_MOTION_DDOT": 0}, "tle": {"line1": "1 30732U 99025ASS 25360.55017980  .00000183  00000+0  13304-3 0  9996", "line2": "2 30732  98.8027  20.2335 0124293 170.3045 341.7178 14.03913572963854"}}, "geometry": {"type": "Point", "coordinates": [73.64290989634198, -78.96660161059604]}}, {"type": "Feature", "properties": {"norad_id": 30735, "name": "FENGYUN 1C DEB", "group": "fengyun-1c-debris", "lat": 57.498527769206135, "lon": -93.61362581642398, "alt_km": 799.4779040225994, "timestamp": "2025-12-27T08:36:18.660810+00:00", "meta": {"OBJECT_NAME": "FENGYUN 1C DEB", "OBJECT_ID": "1999-025ASV", "EPOCH": "2025-12-26T03:39:16.764768", "MEAN_MOTION": 14.24061785, "ECCENTRICITY": 0.00603666, "INCLINATION": 98.7622, "RA_OF_ASC_NODE": 71.1748, "ARG_OF_PERICENTER": 206.4863, "MEAN_ANOMALY": 214.9357, "EPHEMERIS_TYPE": 0, "CLASSIFICATION_TYPE": "U", "NORAD_CAT_ID": 30735, "ELEMENT_SET_NO": 999, "REV_AT_EPOCH": 96939, "BSTAR": 0.0016045311, "MEAN_MOTION_DOT": 3.715e-05, "MEAN_MOTION_DDOT": 0}, "tle": {"line1": "1 30735U 99025ASV 25360.15227737  .00003715  00000+0  16045-2 0  9996", "line2": "2 30735  98.7622  71.1748 0060366 206.4863 214.9357 14.24061785969397"}}, "geometry": {"type": "Point", "coordinates": [-93.61362581642398, 57.498527769206135]}}, {"type": "Feature", "properties": {"norad_id": 30736, "name": "FENGYUN 1C DEB", "group": "fengyun-1c-debris", "lat": -26.61997749118682, "lon": 42.293990878443864, "alt_km": 881.1537079032132, "timestamp": "2025-12-27T08:36:18.660822+00:00", "meta": {"OBJECT_NAME": "FENGYUN 1C DEB", "OBJECT_ID": "1999-025ASW", "EPOCH": "2025-12-22T02:01:20.851104", "MEAN_MOTION": 13.6166731, "ECCENTRICITY": 0.0279263, "INCLINATION": 98.7812, "RA_OF_ASC_NODE": 33.0986, "ARG_OF_PERICENTER": 29.8764, "MEAN_ANOMALY": 24.4821, "EPHEMERIS_TYPE": 0, "CLASSIFICATION_TYPE": "U", "NORAD_CAT_ID": 30736, "ELEMENT_SET_NO": 999, "REV_AT_EPOCH": 92980, "BSTAR": 0.0017109698, "MEAN_MOTION_DOT": 1.664e-05, "MEAN_MOTION_DDOT": 0}, "tle": {"line1": "1 30736U 99025ASW 25356.08426911  .00001664  00000+0  17110-2 0  9994", "line2": "2 30736  98.7812  33.0986 0279263  29.8764  24.4821 13.61667310929803"}}, "geometry": {"type": "Point", "coordinates": [42.293990878443864, -26.61997749118682]}}, {"type": "Feature", "properties": {"norad_id": 30737, "name": "FENGYUN 1C DEB", "group": "fengyun-1c-debris", "lat": 73.14726314486879, "lon": -166.9129186556152, "alt_km": 806.9831957216347, "timestamp": "2025-12-27T08:36:18.660833+00:00", "meta": {"OBJECT_NAME": "FENGYUN 1C DEB", "OBJECT_ID": "1999-025ASX", "EPOCH": "2025-12-27T04:48:11.906784", "MEAN_MOTION": 14.18273197, "ECCENTRICITY": 0.0024501, "INCLINATION": 98.5808, "RA_OF_ASC_NODE": 343.037, "ARG_OF_PERICENTER": 91.4325, "MEAN_ANOMALY": 284.6733, "EPHEMERIS_TYPE": 0, "CLASSIFICATION_TYPE": "U", "NORAD_CAT_ID": 30737, "ELEMENT_SET_NO": 999, "REV_AT_EPOCH": 97238, "BSTAR": 0.000367, "MEAN_MOTION_DOT": 7.16e-06, "MEAN_MOTION_DDOT": 0}, "tle": {"line1": "1 30737U 99025ASX 25361.20013781  .00000716  00000+0  36700-3 0  9996", "line2": "2 30737  98.5808 343.0370 0024501  91.4325 284.6733 14.18273197972381"}}, "geometry": {"type": "Point", "coordinates": [-166.9129186556152, 73.14726314486879]}}, {"type": "Feature", "properties": {"norad_id": 30739, "name": "FENGYUN 1C DEB", "group": "fengyun-1c-debris", "lat": 47.19292747742731, "lon": -21.39041191449636, "alt_km": 887.0456326368048, "timestamp": "2025-12-27T08:36:18.660843+00:00", "meta": {"OBJECT_NAME": "FENGYUN 1C DEB", "OBJECT_ID": "1999-025ASZ", "EPOCH": "2025-12-26T11:02:25.467072", "MEAN_MOTION": 14.14974827, "ECCENTRICITY": 0.0100087, "INCLINATION": 98.6936, "RA_OF_ASC_NODE": 347.2423, "ARG_OF_PERICENTER": 277.5939, "MEAN_ANOMALY": 235.0768, "EPHEMERIS_TYPE": 0, "CLASSIFICATION_TYPE": "U", "NORAD_CAT_ID": 30739, "ELEMENT_SET_NO": 999, "REV_AT_EPOCH": 97057, "BSTAR": 0.00038431, "MEAN_MOTION_DOT": 7.36e-06, "MEAN_MOTION_DDOT": 0}, "tle": {"line1": "1 30739U 99025ASZ 25360.46001698  .00000736  00000+0  38431-3 0  9994", "line2": "2 30739  98.6936 347.2423 0100087 277.5939 235.0768 14.14974827970574"}}, "geometry": {"type": "Point", "coordinates": [-21.39041191449636, 47.19292747742731]}}, {"type": "Feature", "properties": {"norad_id": 30740, "name": "FENGYUN 1C DEB", "group": "fengyun-1c-debris", "lat": -33.72497257923749, "lon": -78.89361899792796, "alt_km": 735.9539448781743, "timestamp": "2025-12-27T08:36:18.660853+00:00", "meta": {"OBJECT_NAME": "FENGYUN 1C DEB", "OBJECT_ID": "1999-025ATA", "EPOCH": "2025-12-26T18:23:46.711968", "MEAN_MOTION": 14.52184449, "ECCENTRICITY": 0.00304869, "INCLINATION": 98.688, "RA_OF_ASC_NODE": 106.3526, "ARG_OF_PERICENTER": 94.1968, "MEAN_ANOMALY": 266.2711, "EPHEMERIS_TYPE": 0, "CLASSIFICATION_TYPE": "U", "NORAD_CAT_ID": 30740, "ELEMENT_SET_NO": 999, "REV_AT_EPOCH": 97851, "BSTAR": 0.0024641347, "MEAN_MOTION_DOT": 0.00010018, "MEAN_MOTION_DDOT": 0}, "tle": {"line1": "1 30740U 99025ATA 25360.76651287  .00010018  00000+0  24641-2 0  9995", "line2": "2 30740  98.6880 106.3526 0030486  94.1968 266.2711 14.52184449978513"}}, "geometry": {"type": "Point", "coordinates": [-78.89361899792796, -33.72497257923749]}}, {"type": "Feature", "properties": {"norad_id": 30741, "name": "FENGYUN 1C DEB", "group": "fengyun-1c-debris", "lat": -24.526267666762784, "lon": -173.81134815303807, "alt_km": 856.6782072118822, "timestamp": "2025-12-27T08:36:18.660863+00:00", "meta": {"OBJECT_NAME": "FENGYUN 1C DEB", "OBJECT_ID": "1999-025ATB", "EPOCH": "2025-12-26T16:40:26.247072", "MEAN_MOTION": 14.13242556, "ECCENTRICITY": 0.00072032, "INCLINATION": 98.6792, "RA_OF_ASC_NODE": 9.5414, "ARG_OF_PERICENTER": 82.7992, "MEAN_ANOMALY": 346.5402, "EPHEMERIS_TYPE": 0, "CLASSIFICATION_TYPE": "U", "NORAD_CAT_ID": 30741, "ELEMENT_SET_NO": 999, "REV_AT_EPOCH": 97016, "BSTAR": 0.00016219731, "MEAN_MOTION_DOT": 2.61e-06, "MEAN_MOTION_DDOT": 0}, "tle": {"line1": "1 30741U 99025ATB 25360.69474823  .00000261  00000+0  16220-3 0  9991", "line2": "2 30741  98.6792   9.5414 0007203  82.7992 346.5402 14.13242556970160"}}, "geometry": {"type": "Point", "coordinates": [-173.81134815303807, -24.526267666762784]}}]}